NORAD_CAT_ID,OBJECT_NAME,OBJECT_TYPE,EPOCH,MEAN_MOTION,ECCENTRICITY,INCLINATION,RA_OF_ASC_NODE,ARG_OF_PERICENTER,MEAN_ANOMALY,BSTAR,MEAN_MOTION_DOT,MEAN_MOTION_DDOT,TLE_LINE0,TLE_LINE1,TLE_LINE2,SEMIMAJOR_AXIS,PERIOD,APOGEE,PERIGEE,DECAYED
52488.0,STARLINK-3892,PAYLOAD,2023-02-03 13:23:19,15.08843545,0.0001428,53.2149,92.4904,80.8033,279.3121,2.1536e-05,5.5e-07,0.0,0 STARLINK-3892,1 52488U 22049AP  23034.55786398  .00000055  00000-0  21536-4 0  9998,2 52488  53.2149  92.4904 0001428  80.8033 279.3121 15.08843545 41809,6917.87,95.437,540.722,538.747,0.0
52488.0,STARLINK-3892,PAYLOAD,2023-02-04 10:03:19,15.08847038,0.0001436,53.2141,88.6242,80.3008,279.8147,0.00015906,2.245e-05,0.0,0 STARLINK-3892,1 52488U 22049AP  23035.41897950  .00002245  00000-0  15906-3 0  9997,2 52488  53.2141  88.6242 0001436  80.3008 279.8147 15.08847038 41779,6917.859,95.437,540.717,538.73,0.0
52488.0,STARLINK-3892,PAYLOAD,2023-02-05 03:32:35,15.08836286,0.0001288,53.2132,85.352,85.6962,274.4178,6.8968e-05,8.1e-06,0.0,0 STARLINK-3892,1 52488U 22049AP  23036.14762938  .00000810  00000-0  68968-4 0  9998,2 52488  53.2132  85.3520 0001288  85.6962 274.4178 15.08836286 42043,6917.892,95.438,540.648,538.866,0.0
52488.0,STARLINK-3892,PAYLOAD,2023-02-05 13:04:53,15.08840188,0.0001515,53.2149,83.567,103.0025,257.1136,5.1122e-05,5.26e-06,0.0,0 STARLINK-3892,1 52488U 22049AP  23036.54506718  .00000526  00000-0  51122-4 0  9992,2 52488  53.2149  83.5670 0001515 103.0025 257.1136 15.08840188 41941,6917.88,95.438,540.793,538.697,0.0
52488.0,STARLINK-3892,PAYLOAD,2023-02-06 11:20:17,15.08849136,0.0001605,53.2156,79.4032,112.7155,247.4007,3.982e-05,3.46e-06,0.0,0 STARLINK-3892,1 52488U 22049AP  23037.47242167  .00000346  00000-0  39820-4 0  9991,2 52488  53.2156  79.4032 0001605 112.7155 247.4007 15.08849136 42241,6917.852,95.437,540.828,538.607,0.0
52488.0,STARLINK-3892,PAYLOAD,2023-02-06 12:55:40,15.08850597,0.0001598,53.2154,79.1054,113.1855,246.9306,5.3451e-05,5.63e-06,0.0,0 STARLINK-3892,1 52488U 22049AP  23037.53866037  .00000563  00000-0  53451-4 0  9993,2 52488  53.2154  79.1054 0001598 113.1855 246.9306 15.08850597 42095,6917.848,95.437,540.818,538.608,0.0
52488.0,STARLINK-3892,PAYLOAD,2023-02-06 19:17:12,15.08847345,0.0001369,53.2148,77.9165,92.7357,267.3792,1.768e-05,-7e-08,0.0,0 STARLINK-3892,1 52488U 22049AP  23037.80362232 -.00000007  00000-0  17680-4 0  9999,2 52488  53.2148  77.9165 0001369  92.7357 267.3792 15.08847345 42130,6917.858,95.437,540.67,538.776,0.0
52488.0,STARLINK-3892,PAYLOAD,2023-02-07 06:24:55,15.08844079,0.0001275,53.2152,75.8369,100.6104,259.5031,9.5644e-05,1.235e-05,0.0,0 STARLINK-3892,1 52488U 22049AP  23038.26730416  .00001235  00000-0  95644-4 0  9992,2 52488  53.2152  75.8369 0001275 100.6104 259.5031 15.08844079 42368,6917.868,95.437,540.615,538.851,0.0
52488.0,STARLINK-3892,PAYLOAD,2023-02-07 11:11:03,15.0885343,0.0001356,53.2155,74.9433,102.8205,257.2938,0.00020044,2.905e-05,0.0,0 STARLINK-3892,1 52488U 22049AP  23038.46601581  .00002905  00000-0  20044-3 0  9990,2 52488  53.2155  74.9433 0001356 102.8205 257.2938 15.08853430 42394,6917.839,95.437,540.642,538.766,0.0
52488.0,STARLINK-3892,PAYLOAD,2023-02-08 07:51:05,15.08840254,0.0001426,53.215,71.0793,104.4175,255.6975,-9.5887e-06,-4.41e-06,0.0,0 STARLINK-3892,1 52488U 22049AP  23039.32714434 -.00000441  00000-0 -95887-5 0  9992,2 52488  53.2150  71.0793 0001426 104.4175 255.6975 15.08840254 42526,6917.88,95.438,540.731,538.758,0.0
52488.0,STARLINK-3892,PAYLOAD,2023-02-08 11:01:51,15.08845377,0.0001207,53.2143,70.4834,99.1706,260.9423,1.7146e-05,-1.5e-07,0.0,0 STARLINK-3892,1 52488U 22049AP  23039.45962067 -.00000015  00000-0  17146-4 0  9990,2 52488  53.2143  70.4834 0001207  99.1706 260.9423 15.08845377 42386,6917.864,95.437,540.564,538.894,0.0
52488.0,STARLINK-3892,PAYLOAD,2023-02-08 18:58:47,15.08834972,0.0001452,53.2149,68.997,97.6749,262.4409,-0.00011004,-2.039e-05,0.0,0 STARLINK-3892,1 52488U 22049AP  23039.79082851 -.00002039  00000-0 -11004-3 0  9996,2 52488  53.2149  68.9970 0001452  97.6749 262.4409 15.08834972 42433,6917.896,95.438,540.765,538.756,0.0
52488.0,STARLINK-3892,PAYLOAD,2023-02-09 06:06:29,15.08836158,0.0001555,53.2155,66.9161,96.2404,263.8765,4.6971e-05,4.6e-06,0.0,0 STARLINK-3892,1 52488U 22049AP  23040.25451080  .00000460  00000-0  46971-4 0  9999,2 52488  53.2155  66.9161 0001555  96.2404 263.8765 15.08836158 42660,6917.892,95.438,540.833,538.681,0.0
52488.0,STARLINK-3892,PAYLOAD,2023-02-09 10:52:38,15.08844654,0.0001257,53.2147,66.0223,97.0605,263.053,6.4264e-05,7.35e-06,0.0,0 STARLINK-3892,1 52488U 22049AP  23040.45322433  .00000735  00000-0  64264-4 0  9990,2 52488  53.2147  66.0223 0001257  97.0605 263.0530 15.08844654 42530,6917.866,95.437,540.601,538.862,0.0
52488.0,STARLINK-3892,PAYLOAD,2023-02-09 18:49:34,15.08834957,0.0001514,53.2165,64.5359,87.1912,272.9253,-2.8045e-05,-7.34e-06,0.0,0 STARLINK-3892,1 52488U 22049AP  23040.78443248 -.00000734  00000-0 -28045-4 0  9992,2 52488  53.2165  64.5359 0001514  87.1912 272.9253 15.08834957 42581,6917.896,95.438,540.808,538.713,0.0
52488.0,STARLINK-3892,PAYLOAD,2023-02-10 01:11:07,15.08831984,0.0001414,53.2151,63.3482,87.157,272.9583,-2.1885e-05,-6.36e-06,0.0,0 STARLINK-3892,1 52488U 22049AP  23041.04939764 -.00000636  00000-0 -21885-4 0  9991,2 52488  53.2151  63.3482 0001414  87.1570 272.9583 15.08831984 42784,6917.905,95.438,540.748,538.792,0.0
52488.0,STARLINK-3892,PAYLOAD,2023-02-10 07:32:40,15.08837001,0.0001375,53.2144,62.1608,78.88,281.2347,9.2906e-05,1.191e-05,0.0,0 STARLINK-3892,1 52488U 22049AP  23041.31435703  .00001191  00000-0  92906-4 0  9992,2 52488  53.2144  62.1608 0001375  78.8800 281.2347 15.08837001 42666,6917.89,95.438,540.706,538.803,0.0
52488.0,STARLINK-3892,PAYLOAD,2023-02-11 05:48:04,15.08841016,0.0001021,53.2155,57.9956,77.6424,282.4683,0.00027826,4.144e-05,0.0,0 STARLINK-3892,1 52488U 22049AP  23042.24171735  .00004144  00000-0  27826-3 0  9996,2 52488  53.2155  57.9956 0001021  77.6424 282.4683 15.08841016 42963,6917.877,95.437,540.449,539.036,0.0
52488.0,STARLINK-3892,PAYLOAD,2023-02-11 18:31:09,15.08850445,0.0001313,53.214,55.6174,73.1676,286.946,0.00033524,5.053e-05,0.0,0 STARLINK-3892,1 52488U 22049AP  23042.77163345  .00005053  00000-0  33524-3 0  9994,2 52488  53.2140  55.6174 0001313  73.1676 286.9460 15.08850445 42887,6917.848,95.437,540.622,538.805,0.0
52488.0,STARLINK-3892,PAYLOAD,2023-02-12 07:14:14,15.08845421,0.0001558,53.2151,53.2376,90.8494,269.2677,0.00021806,3.185e-05,0.0,0 STARLINK-3892,1 52488U 22049AP  23043.30155591  .00003185  00000-0  21806-3 0  9992,2 52488  53.2151  53.2376 0001558  90.8494 269.2677 15.08845421 43122,6917.864,95.437,540.807,538.651,0.0
52488.0,STARLINK-3892,PAYLOAD,2023-02-12 10:25:00,15.08847426,0.0001678,53.2137,52.6421,90.3201,269.7983,0.0001646,2.333e-05,0.0,0 STARLINK-3892,1 52488U 22049AP  23043.43403415  .00002333  00000-0  16460-3 0  9991,2 52488  53.2137  52.6421 0001678  90.3201 269.7983 15.08847426 42989,6917.858,95.437,540.884,538.562,0.0
52488.0,STARLINK-3892,PAYLOAD,2023-02-13 00:43:29,15.08840673,0.0001566,53.2163,49.9648,93.9937,266.1235,-2.1621e-05,-6.32e-06,0.0,0 STARLINK-3892,1 52488U 22049AP  23044.03019750 -.00000632  00000-0 -21621-4 0  9991,2 52488  53.2163  49.9648 0001566  93.9937 266.1235 15.08840673 43236,6917.878,95.438,540.827,538.66,0.0
52488.0,STARLINK-3892,PAYLOAD,2023-02-13 10:15:47,15.08844946,0.0001619,53.214,48.1808,85.3643,274.7535,0.00013861,1.919e-05,0.0,0 STARLINK-3892,1 52488U 22049AP  23044.42763611  .00001919  00000-0  13861-3 0  9999,2 52488  53.2140  48.1808 0001619  85.3643 274.7535 15.08844946 43132,6917.865,95.437,540.85,538.61,0.0
52488.0,STARLINK-3892,PAYLOAD,2023-02-14 00:34:16,15.08833946,0.0001479,53.2135,45.5035,98.4516,261.6643,9.1476e-05,1.168e-05,0.0,0 STARLINK-3892,1 52488U 22049AP  23045.02380246  .00001168  00000-0  91476-4 0  9990,2 52488  53.2135  45.5035 0001479  98.4516 261.6643 15.08833946 43387,6917.899,95.438,540.787,538.741,0.0
52488.0,STARLINK-3892,PAYLOAD,2023-02-14 10:06:34,15.08848535,0.0001539,53.2152,43.7203,90.912,269.2048,0.00028417,4.239e-05,0.0,0 STARLINK-3892,1 52488U 22049AP  23045.42123838  .00004239  00000-0  28417-3 0  9992,2 52488  53.2152  43.7203 0001539  90.9120 269.2048 15.08848535 43448,6917.854,95.437,540.784,538.655,0.0
52488.0,STARLINK-3892,PAYLOAD,2023-02-15 05:11:13,15.0883796,0.0001498,53.2155,40.1506,87.2094,272.9069,2.8749e-05,1.7e-06,0.0,0 STARLINK-3892,1 52488U 22049AP  23046.21612350  .00000170  00000-0  28749-4 0  9991,2 52488  53.2155  40.1506 0001498  87.2094 272.9069 15.08837960 43568,6917.887,95.438,540.788,538.715,0.0
52488.0,STARLINK-3892,PAYLOAD,2023-02-15 22:40:27,15.08847061,0.0001475,53.2157,36.8788,88.0197,272.0964,0.00024979,3.69e-05,0.0,0 STARLINK-3892,1 52488U 22049AP  23046.94475977  .00003690  00000-0  24979-3 0  9993,2 52488  53.2157  36.8788 0001475  88.0197 272.0964 15.08847061 43515,6917.859,95.437,540.744,538.703,0.0
52488.0,STARLINK-3892,PAYLOAD,2023-02-16 00:15:50,15.08851241,0.0001201,53.2149,36.5835,93.6659,266.447,0.00033662,5.075e-05,0.0,0 STARLINK-3892,1 52488U 22049AP  23047.01099717  .00005075  00000-0  33662-3 0  9994,2 52488  53.2149  36.5835 0001201  93.6659 266.4470 15.08851241 43680,6917.846,95.437,540.542,538.88,0.0
52488.0,STARLINK-3892,PAYLOAD,2023-02-16 08:12:44,15.08872238,0.0001133,53.2151,35.095,95.9317,264.1805,0.00058211,8.997e-05,0.0,0 STARLINK-3892,1 52488U 22049AP  23047.34218428  .00008997  00000-0  58211-3 0  9995,2 52488  53.2151  35.0950 0001133  95.9317 264.1805 15.08872238 43737,6917.782,95.436,540.431,538.863,0.0
52488.0,STARLINK-3892,PAYLOAD,2023-02-16 16:09:42,15.08835128,0.0002569,53.2158,33.6077,76.8038,283.324,-4.4367e-05,-9.94e-06,0.0,0 STARLINK-3892,1 52488U 22049AP  23047.67340396 -.00000994  00000-0 -44367-4 0  9990,2 52488  53.2158  33.6077 0002569  76.8038 283.3240 15.08835128 43788,6917.895,95.438,541.537,537.983,0.0
